COMMENT,ORIGINATOR,NORAD_CAT_ID,OBJECT_NAME,OBJECT_TYPE,CLASSIFICATION_TYPE,INTLDES,EPOCH,EPOCH_MICROSECONDS,MEAN_MOTION,ECCENTRICITY,INCLINATION,RA_OF_ASC_NODE,ARG_OF_PERICENTER,MEAN_ANOMALY,EPHEMERIS_TYPE,ELEMENT_SET_NO,REV_AT_EPOCH,BSTAR,MEAN_MOTION_DOT,MEAN_MOTION_DDOT,FILE,TLE_LINE0,TLE_LINE1,TLE_LINE2,OBJECT_ID,OBJECT_NUMBER,SEMIMAJOR_AXIS,PERIOD,APOGEE,PERIGEE,DECAYED,date
GENERATED VIA SPACETRACK.ORG API,18 SPCS,52180,SPACEBEE-134,PAYLOAD,U,22033Z,2023/4/25 3:07,90784,15.41394659,0.0004201,97.3461,198.1603,350.6886,9.4282,0,999,5926,0.0015172,0.00063755,0,3893853,0 SPACEBEE-134,1 52180U 22033Z   23115.13051031  .00063755  00000-0  15172-2 0  9996,2 52180  97.3461 198.1603 0004201 350.6886   9.4282 15.41394659 59263,2022-033Z,52180,6820.129,93.422,444.859,439.129,1,
GENERATED VIA SPACETRACK.ORG API,18 SPCS,52180,SPACEBEE-134,PAYLOAD,U,22033Z,2023/4/25 4:41,59552,15.41402965,0.0004197,97.3461,198.2258,350.3907,9.7259,0,999,5929,0.0014956,0.00062856,0,3894092,0 SPACEBEE-134,1 52180U 22033Z   23115.19542893  .00062856  00000-0  14956-2 0  9993,2 52180  97.3461 198.2258 0004197 350.3907   9.7259 15.41402965 59295,2022-033Z,52180,6820.105,93.421,444.832,439.107,1,
GENERATED VIA SPACETRACK.ORG API,18 SPCS,52180,SPACEBEE-134,PAYLOAD,U,22033Z,2023/4/26 4:03,912672,15.41491528,0.0004185,97.3464,199.2055,345.4795,14.6331,0,999,5944,0.0011475,0.00048257,0,3894260,0 SPACEBEE-134,1 52180U 22033Z   23116.16917723  .00048257  00000-0  11475-2 0  9991,2 52180  97.3464 199.2055 0004185 345.4795  14.6331 15.41491528 59447,2022-033Z,52180,6819.844,93.416,444.563,438.854,1,
GENERATED VIA SPACETRACK.ORG API,18 SPCS,52180,SPACEBEE-134,PAYLOAD,U,22033Z,2023/4/27 4:59,659776,15.41602524,0.000406,97.3462,200.2505,340.7666,19.3427,0,999,5958,0.0013026,0.0005504,0,3894514,0 SPACEBEE-134,1 52180U 22033Z   23117.20777384  .00055040  00000-0  13026-2 0  9996,2 52180  97.3462 200.2505 0004060 340.7666  19.3427 15.41602524 59588,2022-033Z,52180,6819.516,93.409,444.15,438.612,1,
GENERATED VIA SPACETRACK.ORG API,18 SPCS,52180,SPACEBEE-134,PAYLOAD,U,22033Z,2023/4/27 11:13,249920,15.41631522,0.0003991,97.3457,200.5114,341.088,19.0218,0,999,5964,0.0013712,0.00058021,0,3894751,0 SPACEBEE-134,1 52180U 22033Z   23117.46741030  .00058021  00000-0  13712-2 0  9997,2 52180  97.3457 200.5114 0003991 341.0880  19.0218 15.41631522 59647,2022-033Z,52180,6819.431,93.408,444.017,438.574,1,
GENERATED VIA SPACETRACK.ORG API,18 SPCS,52180,SPACEBEE-134,PAYLOAD,U,22033Z,2023/4/28 4:21,582784,15.41720514,0.0004247,97.3454,201.2288,336.2808,23.8242,0,999,5973,0.0012543,0.00053193,0,3895685,0 SPACEBEE-134,1 52180U 22033Z   23118.18138406  .00053193  00000-0  12543-2 0  9990,2 52180  97.3454 201.2288 0004247 336.2808  23.8242 15.41720514 59735,2022-033Z,52180,6819.168,93.402,443.929,438.137,1,
GENERATED VIA SPACETRACK.ORG API,18 SPCS,52180,SPACEBEE-134,PAYLOAD,U,22033Z,2023/4/28 4:21,582784,15.41720514,0.0004247,97.3454,201.2288,336.2808,23.8242,0,999,5975,0.0012543,0.00053193,0,3895770,0 SPACEBEE-134,1 52180U 22033Z   23118.18138406  .00053193  00000-0  12543-2 0  9990,2 52180  97.3454 201.2288 0004247 336.2808  23.8242 15.41720514 59757,2022-033Z,52180,6819.168,93.402,443.929,438.137,1,
GENERATED VIA SPACETRACK.ORG API,18 SPCS,52180,SPACEBEE-134,PAYLOAD,U,22033Z,2023/4/29 3:43,73312,15.41838702,0.0004142,97.3464,202.211,330.3317,29.7694,0,999,5988,0.0013004,0.00055383,0,3896290,0 SPACEBEE-134,1 52180U 22033Z   23119.15491983  .00055383  00000-0  13004-2 0  9996,2 52180  97.3464 202.2110 0004142 330.3317  29.7694 15.41838702 59886,2022-033Z,52180,6818.82,93.395,443.509,437.86,1,
GENERATED VIA SPACETRACK.ORG API,18 SPCS,52180,SPACEBEE-134,PAYLOAD,U,22033Z,2023/4/29 6:49,717280,15.41854725,0.0004142,97.3465,202.3419,329.7827,30.318,0,999,5992,0.0012616,0.00053745,0,3896517,0 SPACEBEE-134,1 52180U 22033Z   23119.28471895  .00053745  00000-0  12616-2 0  9998,2 52180  97.3465 202.3419 0004142 329.7827  30.3180 15.41854725 59924,2022-033Z,52180,6818.773,93.394,443.462,437.813,1,
GENERATED VIA SPACETRACK.ORG API,18 SPCS,52180,SPACEBEE-134,PAYLOAD,U,22033Z,2023/4/30 4:38,4928,15.41966826,0.0004175,97.3465,203.2566,324.4817,35.6151,0,999,6004,0.0013307,0.00056929,0,3897066,0 SPACEBEE-134,1 52180U 22033Z   23120.19327552  .00056929  00000-0  13307-2 0  9995,2 52180  97.3465 203.2566 0004175 324.4817  35.6151 15.41966826 60041,2022-033Z,52180,6818.442,93.387,443.154,437.46,1,
GENERATED VIA SPACETRACK.ORG API,18 SPCS,52180,SPACEBEE-134,PAYLOAD,U,22033Z,2023/4/30 4:38,4928,15.41966826,0.0004175,97.3465,203.2566,324.4817,35.6151,0,999,6006,0.0013307,0.00056929,0,3897442,0 SPACEBEE-134,1 52180U 22033Z   23120.19327552  .00056929  00000-0  13307-2 0  9995,2 52180  97.3465 203.2566 0004175 324.4817  35.6151 15.41966826 60063,2022-033Z,52180,6818.442,93.387,443.154,437.46,1,
